NORAD_CAT_ID,OBJECT_NAME,OBJECT_TYPE,EPOCH,MEAN_MOTION,ECCENTRICITY,INCLINATION,RA_OF_ASC_NODE,ARG_OF_PERICENTER,MEAN_ANOMALY,BSTAR,MEAN_MOTION_DOT,MEAN_MOTION_DDOT,TLE_LINE0,TLE_LINE1,TLE_LINE2,SEMIMAJOR_AXIS,PERIOD,APOGEE,PERIGEE,DECAYED
52503.0,STARLINK-3861,PAYLOAD,2023-05-31 13:56:48,15.08842821,8.6e-05,53.2159,267.1914,77.8712,282.2376,1.0812e-05,-1.16e-06,0.0,0 STARLINK-3861,1 52503U 22049BE  23151.58111247 -.00000116  00000-0  10812-4 0  9998,2 52503  53.2159 267.1914 0000860  77.8712 282.2376 15.08842821 59584,6917.872,95.437,540.332,539.142,0.0
52503.0,STARLINK-3861,PAYLOAD,2023-05-31 15:32:10,15.08845034,7.82e-05,53.2158,266.8941,90.1552,269.953,4.7221e-05,4.64e-06,0.0,0 STARLINK-3861,1 52503U 22049BE  23151.64734939  .00000464  00000-0  47221-4 0  9993,2 52503  53.2158 266.8941 0000782  90.1552 269.9530 15.08845034 59754,6917.865,95.437,540.271,539.189,0.0
52503.0,STARLINK-3861,PAYLOAD,2023-06-01 01:04:29,15.08843194,7.3e-05,53.2158,265.1098,90.295,269.8125,1.1524e-05,-1.04e-06,0.0,0 STARLINK-3861,1 52503U 22049BE  23152.04479065 -.00000104  00000-0  11524-4 0  9993,2 52503  53.2158 265.1098 0000730  90.2950 269.8125 15.08843194 59658,6917.871,95.437,540.241,539.231,0.0
52503.0,STARLINK-3861,PAYLOAD,2023-06-02 00:55:17,15.08842928,8.52e-05,53.2158,260.6494,76.2398,283.8689,4.6797e-05,4.57e-06,0.0,0 STARLINK-3861,1 52503U 22049BE  23153.03839145  .00000457  00000-0  46797-4 0  9992,2 52503  53.2158 260.6494 0000852  76.2398 283.8689 15.08842928 59962,6917.871,95.437,540.326,539.147,0.0
52503.0,STARLINK-3861,PAYLOAD,2023-06-02 12:03:00,15.08817191,7.28e-05,53.2156,258.5666,102.5341,257.5733,0.0002722,4.044e-05,0.0,0 STARLINK-3861,1 52503U 22049BE  23153.50208356  .00004044  00000-0  27220-3 0  9993,2 52503  53.2156 258.5666 0000728 102.5341 257.5733 15.08817191 60032,6917.95,95.439,540.319,539.311,0.0
52503.0,STARLINK-3861,PAYLOAD,2023-06-02 16:49:08,15.08839328,8.71e-05,53.2156,257.6738,102.8632,257.2457,1.5441e-05,-4.2e-07,0.0,0 STARLINK-3861,1 52503U 22049BE  23153.70079539 -.00000042  00000-0  15441-4 0  9992,2 52503  53.2156 257.6738 0000871 102.8632 257.2457 15.08839328 60066,6917.882,95.438,540.35,539.145,0.0
52503.0,STARLINK-3861,PAYLOAD,2023-06-03 13:29:09,15.08838786,9.66e-05,53.2157,253.8075,116.8384,243.2707,5.5365e-05,5.93e-06,0.0,0 STARLINK-3861,1 52503U 22049BE  23154.56191519  .00000593  00000-0  55365-4 0  9999,2 52503  53.2157 253.8075 0000966 116.8384 243.2707 15.08838786 60030,6917.884,95.438,540.417,539.081,0.0
52503.0,STARLINK-3861,PAYLOAD,2023-06-03 16:39:55,15.0883924,9.66e-05,53.2157,253.2127,116.9524,243.1567,5.7513e-05,6.28e-06,0.0,0 STARLINK-3861,1 52503U 22049BE  23154.69439491  .00000628  00000-0  57513-4 0  9993,2 52503  53.2157 253.2127 0000966 116.9524 243.1567 15.08839240 60050,6917.883,95.438,540.416,539.079,0.0
52503.0,STARLINK-3861,PAYLOAD,2023-06-03 23:01:28,15.08835667,9.47e-05,53.2157,252.023,113.8566,246.2525,2.1141e-05,4.9e-07,0.0,0 STARLINK-3861,1 52503U 22049BE  23154.95935882  .00000049  00000-0  21141-4 0  9992,2 52503  53.2157 252.0230 0000947 113.8566 246.2525 15.08835667 60252,6917.894,95.438,540.414,539.104,0.0
52503.0,STARLINK-3861,PAYLOAD,2023-06-04 13:19:56,15.08840048,9.09e-05,53.2156,249.3473,112.368,247.7409,2.2926e-05,7.7e-07,0.0,0 STARLINK-3861,1 52503U 22049BE  23155.55551801  .00000077  00000-0  22926-4 0  9997,2 52503  53.2156 249.3473 0000909 112.3680 247.7409 15.08840048 60186,6917.88,95.438,540.374,539.116,0.0
52503.0,STARLINK-3861,PAYLOAD,2023-06-05 02:03:01,15.08838063,8.82e-05,53.2155,246.9691,98.8416,261.2676,6.7412e-05,7.85e-06,0.0,0 STARLINK-3861,1 52503U 22049BE  23156.08543833  .00000785  00000-0  67412-4 0  9997,2 52503  53.2155 246.9691 0000882  98.8416 261.2676 15.08838063 60423,6917.886,95.438,540.361,539.141,0.0
52503.0,STARLINK-3861,PAYLOAD,2023-06-05 13:10:43,15.08844565,7.95e-05,53.2154,244.8894,93.9781,266.1302,8.3272e-05,1.038e-05,0.0,0 STARLINK-3861,1 52503U 22049BE  23156.54911418  .00001038  00000-0  83272-4 0  9990,2 52503  53.2154 244.8894 0000795  93.9781 266.1302 15.08844565 60332,6917.866,95.437,540.281,539.181,0.0
52503.0,STARLINK-3861,PAYLOAD,2023-06-05 14:46:06,15.08846392,8.26e-05,53.2155,244.5917,90.0949,270.0138,9.7653e-05,1.267e-05,0.0,0 STARLINK-3861,1 52503U 22049BE  23156.61535254  .00001267  00000-0  97653-4 0  9990,2 52503  53.2155 244.5917 0000826  90.0949 270.0138 15.08846392 60505,6917.861,95.437,540.297,539.154,0.0
52503.0,STARLINK-3861,PAYLOAD,2023-06-06 09:50:47,15.08811075,8.39e-05,53.2158,241.0233,84.5069,275.6019,-0.00013005,-2.355e-05,0.0,0 STARLINK-3861,1 52503U 22049BE  23157.41026626 -.00002355  00000-0 -13005-3 0  9996,2 52503  53.2158 241.0233 0000839  84.5069 275.6019 15.08811075 60628,6917.969,95.439,540.414,539.253,0.0
52503.0,STARLINK-3861,PAYLOAD,2023-06-06 11:26:10,15.08811298,8.41e-05,53.2158,240.726,83.7665,276.3423,-0.00015268,-2.715e-05,0.0,0 STARLINK-3861,1 52503U 22049BE  23157.47650778 -.00002715  00000-0 -15268-3 0  9996,2 52503  53.2158 240.7260 0000841  83.7665 276.3423 15.08811298 60477,6917.968,95.439,540.415,539.251,0.0
52503.0,STARLINK-3861,PAYLOAD,2023-06-06 13:01:33,15.08811325,8.96e-05,53.2161,240.4284,85.7838,274.3257,-0.00015397,-2.735e-05,0.0,0 STARLINK-3861,1 52503U 22049BE  23157.54274876 -.00002735  00000-0 -15397-3 0  9990,2 52503  53.2161 240.4284 0000896  85.7838 274.3257 15.08811325 60483,6917.968,95.439,540.453,539.213,0.0
52503.0,STARLINK-3861,PAYLOAD,2023-06-07 04:55:24,15.08828087,7.57e-05,53.2158,237.4547,73.1708,286.9367,-2.1349e-05,-6.27e-06,0.0,0 STARLINK-3861,1 52503U 22049BE  23158.20513909 -.00000627  00000-0 -21349-4 0  9990,2 52503  53.2158 237.4547 0000757  73.1708 286.9367 15.08828087 60743,6917.917,95.438,540.305,539.258,0.0
52503.0,STARLINK-3861,PAYLOAD,2023-06-07 06:30:47,15.0882007,4.91e-05,53.2164,237.154,98.4046,261.7002,5.4929e-05,5.86e-06,0.0,0 STARLINK-3861,1 52503U 22049BE  23158.27138161  .00000586  00000-0  54929-4 0  9992,2 52503  53.2164 237.1540 0000491  98.4046 261.7002 15.08820070 60594,6917.941,95.439,540.146,539.467,0.0
52503.0,STARLINK-3861,PAYLOAD,2023-06-07 22:24:37,15.08848302,9.48e-05,53.2159,234.1848,68.3612,291.7481,4.6267e-05,4.49e-06,0.0,0 STARLINK-3861,1 52503U 22049BE  23158.93376555  .00000449  00000-0  46267-4 0  9990,2 52503  53.2159 234.1848 0000948  68.3612 291.7481 15.08848302 60859,6917.855,95.437,540.376,539.064,0.0
52503.0,STARLINK-3861,PAYLOAD,2023-06-08 11:07:41,15.08846822,6.66e-05,53.2151,231.8033,63.3035,296.8025,0.00036827,5.579e-05,0.0,0 STARLINK-3861,1 52503U 22049BE  23159.46367594  .00005579  00000-0  36827-3 0  9991,2 52503  53.2151 231.8033 0000666  63.3035 296.8025 15.08846822 60778,6917.86,95.437,540.185,539.264,0.0
52503.0,STARLINK-3861,PAYLOAD,2023-06-09 10:58:29,15.08849597,4.62e-05,53.2149,227.341,63.2968,296.8071,-6.6919e-06,-3.94e-06,0.0,0 STARLINK-3861,1 52503U 22049BE  23160.45728257 -.00000394  00000-0 -66919-5 0  9998,2 52503  53.2149 227.3410 0000462  63.2968 296.8071 15.08849597 61080,6917.851,95.437,540.036,539.396,0.0
52503.0,STARLINK-3861,PAYLOAD,2023-06-10 07:38:31,15.08782263,6.65e-05,53.2148,223.4782,87.7728,272.334,0.00077747,0.00012088,0.0,0 STARLINK-3861,1 52503U 22049BE  23161.31842078  .00012088  00000-0  77747-3 0  9992,2 52503  53.2148 223.4782 0000665  87.7728 272.3340 15.08782263 61059,6918.057,95.441,540.382,539.462,0.0
52503.0,STARLINK-3861,PAYLOAD,2023-06-10 10:49:16,15.08845981,0.0001041,53.2154,222.8841,71.9151,288.1954,-9.176e-05,-1.748e-05,0.0,0 STARLINK-3861,1 52503U 22049BE  23161.45088275 -.00001748  00000-0 -91760-4 0  9993,2 52503  53.2154 222.8841 0001041  71.9151 288.1954 15.08845981 61232,6917.862,95.437,540.447,539.007,0.0
52503.0,STARLINK-3861,PAYLOAD,2023-06-11 10:40:03,15.08837522,0.0001064,53.2155,218.4224,77.3831,282.728,1.9e-05,1.5e-07,0.0,0 STARLINK-3861,1 52503U 22049BE  23162.44448314  .00000015  00000-0  19000-4 0  9998,2 52503  53.2155 218.4224 0001064  77.3831 282.7280 15.08837522 61222,6917.888,95.438,540.489,539.017,0.0
52503.0,STARLINK-3861,PAYLOAD,2023-06-12 04:09:18,15.08835231,9.9e-05,53.2158,215.1528,79.3266,280.7838,3.1013e-05,2.06e-06,0.0,0 STARLINK-3861,1 52503U 22049BE  23163.17312578  .00000206  00000-0  31013-4 0  9991,2 52503  53.2158 215.1528 0000990  79.3266 280.7838 15.08835231 61498,6917.895,95.438,540.445,539.075,0.0
52503.0,STARLINK-3861,PAYLOAD,2023-06-12 10:30:50,15.08838668,0.0001009,53.2159,213.9636,79.8611,280.2494,5.8134e-05,6.38e-06,0.0,0 STARLINK-3861,1 52503U 22049BE  23163.43808327  .00000638  00000-0  58134-4 0  9994,2 52503  53.2159 213.9636 0001009  79.8611 280.2494 15.08838668 61373,6917.884,95.438,540.447,539.051,0.0
52503.0,STARLINK-3861,PAYLOAD,2023-06-12 20:03:09,15.08834372,9.45e-05,53.2152,212.1795,78.1379,281.9719,2.8777e-05,1.7e-06,0.0,0 STARLINK-3861,1 52503U 22049BE  23163.83552782  .00000170  00000-0  28777-4 0  9990,2 52503  53.2152 212.1795 0000945  78.1379 281.9719 15.08834372 61437,6917.898,95.438,540.416,539.109,0.0
52503.0,STARLINK-3861,PAYLOAD,2023-06-13 11:57:01,15.08833204,9.65e-05,53.2151,209.2058,77.3326,282.7774,1.449e-05,-5.7e-07,0.0,0 STARLINK-3861,1 52503U 22049BE  23164.49793130 -.00000057  00000-0  14490-4 0  9999,2 52503  53.2151 209.2058 0000965  77.3326 282.7774 15.08833204 61691,6917.901,95.438,540.434,539.099,0.0
52503.0,STARLINK-3861,PAYLOAD,2023-06-13 19:53:56,15.08836196,9.52e-05,53.215,207.7192,79.978,280.1319,3.7517e-05,3.09e-06,0.0,0 STARLINK-3861,1 52503U 22049BE  23164.82912957  .00000309  00000-0  37517-4 0  9990,2 52503  53.2150 207.7192 0000952  79.9780 280.1319 15.08836196 61588,6917.892,95.438,540.416,539.098,0.0
52503.0,STARLINK-3861,PAYLOAD,2023-06-14 02:15:29,15.08841731,9.48e-05,53.2151,206.5285,79.8567,280.2532,3.2551e-05,2.3e-06,0.0,0 STARLINK-3861,1 52503U 22049BE  23165.09408678  .00000230  00000-0  32551-4 0  9996,2 52503  53.2151 206.5285 0000948  79.8567 280.2532 15.08841731 61787,6917.875,95.437,540.396,539.084,0.0
